NORAD_CAT_ID,OBJECT_NAME,OBJECT_TYPE,EPOCH,MEAN_MOTION,ECCENTRICITY,INCLINATION,RA_OF_ASC_NODE,ARG_OF_PERICENTER,MEAN_ANOMALY,BSTAR,MEAN_MOTION_DOT,MEAN_MOTION_DDOT,TLE_LINE0,TLE_LINE1,TLE_LINE2,SEMIMAJOR_AXIS,PERIOD,APOGEE,PERIGEE,DECAYED
55956.0,STARLINK-5883,PAYLOAD,2024-02-05 09:46:24,14.98322258,0.0002958,70.0005,28.8501,268.4215,91.6605,0.00011697,1.303e-05,0.0,0 STARLINK-5883,1 55956U 23037AU  24036.40722403  .00001303  00000-0  11697-3 0  9996,2 55956  70.0005  28.8501 0002958 268.4215  91.6605 14.98322258 50141,6950.217,96.107,574.138,570.026,0.0
55956.0,STARLINK-5883,PAYLOAD,2024-02-06 03:23:52,14.98327822,0.0002919,70.0007,26.9985,269.2378,90.8446,4.3391e-05,4.25e-06,0.0,0 STARLINK-5883,1 55956U 23037AU  24037.14158480  .00000425  00000-0  43391-4 0  9997,2 55956  70.0007  26.9985 0002919 269.2378  90.8446 14.98327822 50599,6950.2,96.107,574.093,570.036,0.0
55956.0,STARLINK-5883,PAYLOAD,2024-02-06 09:48:24,14.98332316,0.0002874,70.0007,26.3253,268.2809,91.8021,9.0244e-05,9.84e-06,0.0,0 STARLINK-5883,1 55956U 23037AU  24037.40862059  .00000984  00000-0  90244-4 0  9999,2 55956  70.0007  26.3253 0002874 268.2809  91.8021 14.98332316 50290,6950.186,96.107,574.048,570.053,0.0
55956.0,STARLINK-5883,PAYLOAD,2024-02-07 03:25:53,14.98327087,0.0002791,70.0008,24.4734,264.6871,95.397,1.9072e-05,1.35e-06,0.0,0 STARLINK-5883,1 55956U 23037AU  24038.14298592  .00000135  00000-0  19072-4 0  9994,2 55956  70.0008  24.4734 0002791 264.6871  95.3970 14.98327087 50742,6950.202,96.107,574.007,570.127,0.0
55956.0,STARLINK-5883,PAYLOAD,2024-02-07 08:14:17,14.98344811,0.0002834,70.0009,23.9697,263.9023,96.1813,-0.00025434,-3.127e-05,0.0,0 STARLINK-5883,1 55956U 23037AU  24038.34326099 -.00003127  00000-0 -25434-3 0  9994,2 55956  70.0009  23.9697 0002834 263.9023  96.1813 14.98344811 50776,6950.147,96.106,573.982,570.042,0.0
55956.0,STARLINK-5883,PAYLOAD,2024-02-08 01:51:46,14.98329804,0.0002611,70.0016,22.1184,248.4761,111.612,-2.6164e-05,-4.05e-06,0.0,0 STARLINK-5883,1 55956U 23037AU  24039.07762507 -.00000405  00000-0 -26164-4 0  9991,2 55956  70.0016  22.1184 0002611 248.4761 111.6120 14.98329804 50887,6950.193,96.107,573.873,570.244,0.0
55956.0,STARLINK-5883,PAYLOAD,2024-02-08 08:16:18,14.9833146,0.0002713,70.001,21.4433,264.8946,95.1904,-9.809e-06,-2.1e-06,0.0,0 STARLINK-5883,1 55956U 23037AU  24039.34466420 -.00000210  00000-0 -98090-5 0  9998,2 55956  70.0010  21.4433 0002713 264.8946  95.1904 14.98331460 50584,6950.188,96.107,573.939,570.168,0.0
55956.0,STARLINK-5883,PAYLOAD,2024-02-09 03:29:55,14.98329119,0.0002844,70.0008,19.4237,267.1381,92.9453,-7.0616e-06,-1.77e-06,0.0,0 STARLINK-5883,1 55956U 23037AU  24040.14578522 -.00000177  00000-0 -70616-5 0  9991,2 55956  70.0008  19.4237 0002844 267.1381  92.9453 14.98329119 51048,6950.196,96.107,574.037,570.084,0.0
55956.0,STARLINK-5883,PAYLOAD,2024-02-09 08:18:19,14.98330941,0.0002825,70.0009,18.919,267.2497,92.8339,1.4458e-05,8e-07,0.0,0 STARLINK-5883,1 55956U 23037AU  24040.34606347  .00000080  00000-0  14458-4 0  9992,2 55956  70.0009  18.9190 0002825 267.2497  92.8339 14.98330941 50731,6950.19,96.107,574.018,570.092,0.0
55956.0,STARLINK-5883,PAYLOAD,2024-02-10 03:31:56,14.98328035,0.0002835,70.0011,16.8989,267.1964,92.887,-1.8121e-05,-3.09e-06,0.0,0 STARLINK-5883,1 55956U 23037AU  24041.14718670 -.00000309  00000-0 -18121-4 0  9991,2 55956  70.0011  16.8989 0002835 267.1964  92.8870 14.98328035 51198,6950.199,96.107,574.034,570.094,0.0
55956.0,STARLINK-5883,PAYLOAD,2024-02-10 08:20:20,14.98331803,0.000278,70.0012,16.3938,266.3592,93.7249,2.7985e-05,2.41e-06,0.0,0 STARLINK-5883,1 55956U 23037AU  24041.34746297  .00000241  00000-0  27985-4 0  9990,2 55956  70.0012  16.3938 0002780 266.3592  93.7249 14.98331803 50887,6950.187,96.107,573.984,570.12,0.0
55956.0,STARLINK-5883,PAYLOAD,2024-02-10 22:45:33,14.98330572,0.0002642,70.0016,14.8792,258.5792,101.507,1.1717e-05,4.7e-07,0.0,0 STARLINK-5883,1 55956U 23037AU  24041.94830345  .00000047  00000-0  11717-4 0  9994,2 55956  70.0016  14.8792 0002642 258.5792 101.5070 14.98330572 50976,6950.191,96.107,573.892,570.22,0.0
55956.0,STARLINK-5883,PAYLOAD,2024-02-11 03:33:57,14.98328895,0.0002686,70.0016,14.3745,258.8991,101.1866,-1.0718e-05,-2.21e-06,0.0,0 STARLINK-5883,1 55956U 23037AU  24042.14858510 -.00000221  00000-0 -10718-4 0  9997,2 55956  70.0016  14.3745 0002686 258.8991 101.1866 14.98328895 51347,6950.196,96.107,573.928,570.194,0.0
55956.0,STARLINK-5883,PAYLOAD,2024-02-11 08:22:21,14.98330501,0.0002664,70.0017,13.8698,258.0715,102.0145,7.8016e-06,0.0,0.0,0 STARLINK-5883,1 55956U 23037AU  24042.34886357  .00000000  00000-0  78016-5 0  9998,2 55956  70.0017  13.8698 0002664 258.0715 102.0145 14.98330501 51034,6950.191,96.107,573.908,570.205,0.0
55956.0,STARLINK-5883,PAYLOAD,2024-02-11 22:47:34,14.98332569,0.0002714,70.0017,12.3547,257.6967,102.3889,3.2972e-05,3.01e-06,0.0,0 STARLINK-5883,1 55956U 23037AU  24042.94970065  .00000301  00000-0  32972-4 0  9998,2 55956  70.0017  12.3547 0002714 257.6967 102.3889 14.98332569 51125,6950.185,96.107,573.936,570.164,0.0
55956.0,STARLINK-5883,PAYLOAD,2024-02-12 03:35:58,14.98333297,0.0002692,70.0018,11.8498,258.1669,101.9188,4.1033e-05,3.97e-06,0.0,0 STARLINK-5883,1 55956U 23037AU  24043.14997961  .00000397  00000-0  41033-4 0  9998,2 55956  70.0018  11.8498 0002692 258.1669 101.9188 14.98333297 51491,6950.183,96.107,573.919,570.177,0.0
55956.0,STARLINK-5883,PAYLOAD,2024-02-12 06:48:13,14.98338008,0.0002652,70.0019,11.5135,253.5975,106.4893,9.3665e-05,1.025e-05,0.0,0 STARLINK-5883,1 55956U 23037AU  24043.28349444  .00001025  00000-0  93665-4 0  9997,2 55956  70.0019  11.5135 0002652 253.5975 106.4893 14.98338008 51175,6950.168,96.106,573.876,570.19,0.0
55956.0,STARLINK-5883,PAYLOAD,2024-02-12 22:49:35,14.9832541,0.0002333,70.0032,9.8313,238.8952,121.1978,1.5318e-05,9e-07,0.0,0 STARLINK-5883,1 55956U 23037AU  24043.95110275  .00000090  00000-0  15318-4 0  9999,2 55956  70.0032   9.8313 0002333 238.8952 121.1978 14.98325410 51277,6950.207,96.107,573.694,570.451,0.0
55956.0,STARLINK-5883,PAYLOAD,2024-02-13 03:37:59,14.98325504,0.0002147,70.0029,9.3254,259.3128,100.7789,-1.0388e-05,-2.17e-06,0.0,0 STARLINK-5883,1 55956U 23037AU  24044.15138470 -.00000217  00000-0 -10388-4 0  9994,2 55956  70.0029   9.3254 0002147 259.3128 100.7789 14.98325504 51646,6950.207,96.107,573.564,570.58,0.0
55956.0,STARLINK-5883,PAYLOAD,2024-02-13 05:14:07,14.98323223,0.0002356,70.0026,9.1571,257.2843,102.8052,-4.151e-05,-5.88e-06,0.0,0 STARLINK-5883,1 55956U 23037AU  24044.21814746 -.00000588  00000-0 -41510-4 0  9990,2 55956  70.0026   9.1571 0002356 257.2843 102.8052 14.98323223 51312,6950.214,96.107,573.716,570.441,0.0
55956.0,STARLINK-5883,PAYLOAD,2024-02-13 22:51:36,14.98331208,0.0003029,70.0007,7.3041,267.486,92.5952,-8.241e-05,-1.076e-05,0.0,0 STARLINK-5883,1 55956U 23037AU  24044.95250368 -.00001076  00000-0 -82410-4 0  9992,2 55956  70.0007   7.3041 0003029 267.4860  92.5952 14.98331208 51421,6950.189,96.107,574.159,569.949,0.0
55956.0,STARLINK-5883,PAYLOAD,2024-02-14 03:40:00,14.98336687,0.0002903,70.001,6.8005,266.8179,93.2648,-1.5735e-05,-2.81e-06,0.0,0 STARLINK-5883,1 55956U 23037AU  24045.15277800 -.00000281  00000-0 -15735-4 0  9998,2 55956  70.0010   6.8005 0002903 266.8179  93.2648 14.98336687 51791,6950.172,96.107,574.055,570.02,0.0
55956.0,STARLINK-5883,PAYLOAD,2024-02-14 06:52:15,14.98338268,0.0002809,70.0013,6.4639,265.5643,94.5195,1.1973e-05,5e-07,0.0,0 STARLINK-5883,1 55956U 23037AU  24045.28629578  .00000050  00000-0  11973-4 0  9997,2 55956  70.0013   6.4639 0002809 265.5643  94.5195 14.98338268 51473,6950.167,96.106,573.985,570.08,0.0
55956.0,STARLINK-5883,PAYLOAD,2024-02-14 22:53:37,14.9832103,0.0002586,70.0022,4.7805,263.5018,96.5847,1.4786e-05,8.3e-07,0.0,0 STARLINK-5883,1 55956U 23037AU  24045.95390640  .00000083  00000-0  14786-4 0  9997,2 55956  70.0022   4.7805 0002586 263.5018  96.5847 14.98321030 51571,6950.221,96.108,573.883,570.288,0.0
55956.0,STARLINK-5883,PAYLOAD,2024-02-15 03:42:01,14.98319642,0.0002855,70.0018,4.2767,269.439,90.6442,1.0683e-05,3.4e-07,0.0,0 STARLINK-5883,1 55956U 23037AU  24046.15418847  .00000034  00000-0  10683-4 0  9998,2 55956  70.0018   4.2767 0002855 269.4390  90.6442 14.98319642 51948,6950.225,96.108,574.074,570.106,0.0
55956.0,STARLINK-5883,PAYLOAD,2024-02-15 06:54:17,14.98320849,0.0002893,70.0017,3.94,269.9602,90.1226,1.7052e-05,1.1e-06,0.0,0 STARLINK-5883,1 55956U 23037AU  24046.28770829  .00000110  00000-0  17052-4 0  9995,2 55956  70.0017   3.9400 0002893 269.9602  90.1226 14.98320849 51621,6950.221,96.108,574.097,570.075,0.0
55956.0,STARLINK-5883,PAYLOAD,2024-02-15 14:54:58,14.98326559,0.0002925,70.001,3.0958,269.8012,90.2811,8.9089e-07,-8.2e-07,0.0,0 STARLINK-5883,1 55956U 23037AU  24046.62150607 -.00000082  00000-0  89089-6 0  9999,2 55956  70.0010   3.0958 0002925 269.8012  90.2811 14.98326559 52012,6950.204,96.107,574.101,570.036,0.0
55956.0,STARLINK-5883,PAYLOAD,2024-02-15 22:55:38,14.9832578,0.0002993,70.0008,2.2542,269.5452,90.5364,2.9107e-05,2.54e-06,0.0,0 STARLINK-5883,1 55956U 23037AU  24046.95530619  .00000254  00000-0  29107-4 0  9993,2 55956  70.0008   2.2542 0002993 269.5452  90.5364 14.98325780 51727,6950.206,96.107,574.151,569.991,0.0
55956.0,STARLINK-5883,PAYLOAD,2024-02-16 06:56:18,14.98337593,0.0002905,70.001,1.4129,269.8794,90.2032,2.5666e-05,2.13e-06,0.0,0 STARLINK-5883,1 55956U 23037AU  24047.28909894  .00000213  00000-0  25666-4 0  9996,2 55956  70.0010   1.4129 0002905 269.8794  90.2032 14.98337593 52115,6950.169,96.107,574.053,570.015,0.0
55956.0,STARLINK-5883,PAYLOAD,2024-02-16 21:21:31,14.98328024,0.0002817,70.0011,359.8981,271.7775,88.3061,7.3618e-05,7.85e-06,0.0,0 STARLINK-5883,1 55956U 23037AU  24047.88994282  .00000785  00000-0  73618-4 0  9991,2 55956  70.0011 359.8981 0002817 271.7775  88.3061 14.98328024 51865,6950.199,96.107,574.022,570.106,0.0
